{
  "type": "FeatureCollection",
  "metadata": {
    "source": "DeepState",
    "source_name_ru": "OSINT-проект DeepState UA",
    "source_url": "https://deepstatemap.live",
    "role": "GEOSPATIAL_OSINT_FEED",
    "snapshot_date": "2026-09-07",
    "synchronized_at": "2026-09-26T05:49:40.279Z",
    "features_count": 30,
    "version": "913c6bb5e86c9482"
  },
  "features": [
    {
      "type": "Feature",
      "id": "ds-feat-1787662201",
      "geometry": {
        "type": "Point",
        "coordinates": [
          37.6359016,
          49.8436906
        ]
      },
      "properties": {
        "id": "ds-feat-1787662201",
        "name": "Западного",
        "title_ru": "Западного",
        "title_uk": "Западного",
        "description": "Силы обороны Украины восстановили контроль вблизи Западного.",
        "description_ru": "Силы обороны Украины восстановили контроль вблизи Западного.",
        "description_uk": "Сили Оборони України відновили контроль поблизу Западного .",
        "sector_id": "kupyansk_lyman",
        "source": "DeepState",
        "source_type": "geospatial_osint",
        "source_url": "https://deepstatemap.live",
        "event_date": "2026-08-25",
        "published_at": "2026-08-25T12:50:01.000Z",
        "confidence": 0.94,
        "status": "osint_verified"
      }
    },
    {
      "type": "Feature",
      "id": "ds-feat-1787766560",
      "geometry": {
        "type": "Point",
        "coordinates": [
          37.8259264,
          48.567741
        ]
      },
      "properties": {
        "id": "ds-feat-1787766560",
        "name": "Часовому Яру",
        "title_ru": "Часовому Яру",
        "title_uk": "Часовому Яру",
        "description": "противник продвинулся у Часовому Яру.",
        "description_ru": "противник продвинулся у Часовому Яру.",
        "description_uk": "Ворог просунувся у Часовому Яру .",
        "sector_id": "chasiv_yar",
        "source": "DeepState",
        "source_type": "geospatial_osint",
        "source_url": "https://deepstatemap.live",
        "event_date": "2026-08-26",
        "published_at": "2026-08-26T17:49:20.000Z",
        "confidence": 0.94,
        "status": "osint_verified"
      }
    },
    {
      "type": "Feature",
      "id": "ds-feat-1787830095",
      "geometry": {
        "type": "Point",
        "coordinates": [
          37.8963093,
          48.7751984
        ]
      },
      "properties": {
        "id": "ds-feat-1787830095",
        "name": "Никифоровка",
        "title_ru": "Никифоровка",
        "title_uk": "Никифорівки",
        "description": "противник продвинулся вблизи Никифоровка.",
        "description_ru": "противник продвинулся вблизи Никифоровка.",
        "description_uk": "Ворог просунувся поблизу Никифорівки .",
        "sector_id": "chasiv_yar",
        "source": "DeepState",
        "source_type": "geospatial_osint",
        "source_url": "https://deepstatemap.live",
        "event_date": "2026-08-27",
        "published_at": "2026-08-27T11:28:15.000Z",
        "confidence": 0.94,
        "status": "osint_verified"
      }
    },
    {
      "type": "Feature",
      "id": "ds-feat-1787921095",
      "geometry": {
        "type": "Point",
        "coordinates": [
          36.1831312,
          47.6493755
        ]
      },
      "properties": {
        "id": "ds-feat-1787921095",
        "name": "Зализное (Железное)",
        "title_ru": "Зализное (Железное)",
        "title_uk": "Залізничного",
        "description": "противник продвинулся вблизи Зализное (Железное).",
        "description_ru": "противник продвинулся вблизи Зализное (Железное).",
        "description_uk": "Ворог просунувся поблизу Залізничного .",
        "sector_id": "zaporizhzhia",
        "source": "DeepState",
        "source_type": "geospatial_osint",
        "source_url": "https://deepstatemap.live",
        "event_date": "2026-08-28",
        "published_at": "2026-08-28T12:44:55.000Z",
        "confidence": 0.94,
        "status": "osint_verified"
      }
    },
    {
      "type": "Feature",
      "id": "ds-feat-1788030194",
      "geometry": {
        "type": "Point",
        "coordinates": [
          37.1725898,
          48.3585352
        ]
      },
      "properties": {
        "id": "ds-feat-1788030194",
        "name": "Родинское",
        "title_ru": "Родинское",
        "title_uk": "Родинського",
        "description": "противник продвинулся вблизи Родинское.",
        "description_ru": "противник продвинулся вблизи Родинское.",
        "description_uk": "Ворог просунувся поблизу Родинського .",
        "sector_id": "pokrovsk",
        "source": "DeepState",
        "source_type": "geospatial_osint",
        "source_url": "https://deepstatemap.live",
        "event_date": "2026-08-29",
        "published_at": "2026-08-29T19:03:14.000Z",
        "confidence": 0.94,
        "status": "osint_verified"
      }
    },
    {
      "type": "Feature",
      "id": "ds-feat-1788099997",
      "geometry": {
        "type": "Point",
        "coordinates": [
          37.6025945,
          49.8072691
        ]
      },
      "properties": {
        "id": "ds-feat-1788099997",
        "name": "Западного",
        "title_ru": "Западного",
        "title_uk": "Западного",
        "description": "Силы обороны Украины восстановили контроль вблизи Западного.",
        "description_ru": "Силы обороны Украины восстановили контроль вблизи Западного.",
        "description_uk": "Сили Оборони України відновили контроль поблизу Западного .",
        "sector_id": "kupyansk_lyman",
        "source": "DeepState",
        "source_type": "geospatial_osint",
        "source_url": "https://deepstatemap.live",
        "event_date": "2026-08-30",
        "published_at": "2026-08-30T14:26:37.000Z",
        "confidence": 0.94,
        "status": "osint_verified"
      }
    },
    {
      "type": "Feature",
      "id": "ds-feat-1788206224",
      "geometry": {
        "type": "Point",
        "coordinates": [
          37.8315067,
          48.7149193
        ]
      },
      "properties": {
        "id": "ds-feat-1788206224",
        "name": "Миньковка",
        "title_ru": "Миньковка",
        "title_uk": "Міньківки",
        "description": "противник продвинулся вблизи Миньковка.",
        "description_ru": "противник продвинулся вблизи Миньковка.",
        "description_uk": "Ворог просунувся поблизу Міньківки .",
        "sector_id": "chasiv_yar",
        "source": "DeepState",
        "source_type": "geospatial_osint",
        "source_url": "https://deepstatemap.live",
        "event_date": "2026-08-31",
        "published_at": "2026-08-31T19:57:04.000Z",
        "confidence": 0.94,
        "status": "osint_verified"
      }
    },
    {
      "type": "Feature",
      "id": "ds-feat-1788288304",
      "geometry": {
        "type": "Point",
        "coordinates": [
          37.1528598,
          50.3431531
        ]
      },
      "properties": {
        "id": "ds-feat-1788288304",
        "name": "Бочково, Ивашкиного, Луговское и Гуляйпольское",
        "title_ru": "Бочково, Ивашкиного, Луговское и Гуляйпольское",
        "title_uk": "Бочкового, Івашкиного, Лугівського та Гуляйпільського",
        "description": "противник продвинулся вблизи Бочково, Ивашкиного, Луговское и Гуляйпольское.",
        "description_ru": "противник продвинулся вблизи Бочково, Ивашкиного, Луговское и Гуляйпольское.",
        "description_uk": "Ворог просунувся поблизу Бочкового , Івашкиного , Лугівського та Гуляйпільського .",
        "sector_id": "kupyansk_lyman",
        "source": "DeepState",
        "source_type": "geospatial_osint",
        "source_url": "https://deepstatemap.live",
        "event_date": "2026-09-01",
        "published_at": "2026-09-01T18:45:04.000Z",
        "confidence": 0.94,
        "status": "osint_verified"
      }
    },
    {
      "type": "Feature",
      "id": "ds-feat-1788377945",
      "geometry": {
        "type": "Point",
        "coordinates": [
          37.8185458,
          48.7324262
        ]
      },
      "properties": {
        "id": "ds-feat-1788377945",
        "name": "Голубовка и Ступочок",
        "title_ru": "Голубовка и Ступочок",
        "title_uk": "Голубівки та Ступочок",
        "description": "противник продвинулся вблизи Голубовка и Ступочок.",
        "description_ru": "противник продвинулся вблизи Голубовка и Ступочок.",
        "description_uk": "Ворог просунувся поблизу Голубівки та Ступочок .",
        "sector_id": "chasiv_yar",
        "source": "DeepState",
        "source_type": "geospatial_osint",
        "source_url": "https://deepstatemap.live",
        "event_date": "2026-09-02",
        "published_at": "2026-09-02T19:39:05.000Z",
        "confidence": 0.94,
        "status": "osint_verified"
      }
    },
    {
      "type": "Feature",
      "id": "ds-feat-1788443805",
      "geometry": {
        "type": "Point",
        "coordinates": [
          37.6508315,
          49.8486151
        ]
      },
      "properties": {
        "id": "ds-feat-1788443805",
        "name": "Двуречная",
        "title_ru": "Двуречная",
        "title_uk": "Дворічної",
        "description": "Силы обороны Украины вернули контроль вблизи Двуречная.",
        "description_ru": "Силы обороны Украины вернули контроль вблизи Двуречная.",
        "description_uk": "Сили Оборони України повернули контроль поблизу Дворічної .",
        "sector_id": "kupyansk_lyman",
        "source": "DeepState",
        "source_type": "geospatial_osint",
        "source_url": "https://deepstatemap.live",
        "event_date": "2026-09-03",
        "published_at": "2026-09-03T13:56:45.000Z",
        "confidence": 0.94,
        "status": "osint_verified"
      }
    },
    {
      "type": "Feature",
      "id": "ds-feat-1788506983",
      "geometry": {
        "type": "Point",
        "coordinates": [
          35.5665732,
          47.5506029
        ]
      },
      "properties": {
        "id": "ds-feat-1788506983",
        "name": "Малые Щербаки, Гуляйпольское и Варваривки",
        "title_ru": "Малые Щербаки, Гуляйпольское и Варваривки",
        "title_uk": "Малих Щербаків, Гуляйпільського та Варварівки",
        "description": "противник продвинулся вблизи Малые Щербаки, Гуляйпольское и Варваривки.",
        "description_ru": "противник продвинулся вблизи Малые Щербаки, Гуляйпольское и Варваривки.",
        "description_uk": "Ворог просунувся поблизу Малих Щербаків , Гуляйпільського та Варварівки .",
        "sector_id": "zaporizhzhia",
        "source": "DeepState",
        "source_type": "geospatial_osint",
        "source_url": "https://deepstatemap.live",
        "event_date": "2026-09-04",
        "published_at": "2026-09-04T07:29:43.000Z",
        "confidence": 0.94,
        "status": "osint_verified"
      }
    },
    {
      "type": "Feature",
      "id": "ds-feat-1788638115",
      "geometry": {
        "type": "Point",
        "coordinates": [
          37.7463619,
          48.4882236
        ]
      },
      "properties": {
        "id": "ds-feat-1788638115",
        "name": "Константиновка",
        "title_ru": "Константиновка",
        "title_uk": "Костянтинівки",
        "description": "противник продвинулся вблизи Константиновка.",
        "description_ru": "противник продвинулся вблизи Константиновка.",
        "description_uk": "Ворог просунувся поблизу Костянтинівки .",
        "sector_id": "toretsk",
        "source": "DeepState",
        "source_type": "geospatial_osint",
        "source_url": "https://deepstatemap.live",
        "event_date": "2026-09-05",
        "published_at": "2026-09-05T19:55:15.000Z",
        "confidence": 0.94,
        "status": "osint_verified"
      }
    },
    {
      "type": "Feature",
      "id": "ds-feat-1788726211",
      "geometry": {
        "type": "Point",
        "coordinates": [
          37.1265954,
          48.3705503
        ]
      },
      "properties": {
        "id": "ds-feat-1788726211",
        "name": "Шевченко",
        "title_ru": "Шевченко",
        "title_uk": "Шевченко",
        "description": "противник продвинулся вблизи Шевченко.",
        "description_ru": "противник продвинулся вблизи Шевченко.",
        "description_uk": "Ворог просунувся поблизу Шевченко .",
        "sector_id": "pokrovsk",
        "source": "DeepState",
        "source_type": "geospatial_osint",
        "source_url": "https://deepstatemap.live",
        "event_date": "2026-09-06",
        "published_at": "2026-09-06T20:23:31.000Z",
        "confidence": 0.94,
        "status": "osint_verified"
      }
    },
    {
      "type": "Feature",
      "id": "ds-feat-1788809235",
      "geometry": {
        "type": "Point",
        "coordinates": [
          37.0796282,
          48.2970588
        ]
      },
      "properties": {
        "id": "ds-feat-1788809235",
        "name": "Гришиного, Каленики и Федоривки Другои",
        "title_ru": "Гришиного, Каленики и Федоривки Другои",
        "title_uk": "Гришиного, Калеників та Федорівки Другої",
        "description": "противник продвинулся вблизи Гришиного, Каленики и Федоривки Другои.",
        "description_ru": "противник продвинулся вблизи Гришиного, Каленики и Федоривки Другои.",
        "description_uk": "Ворог просунувся поблизу Гришиного , Калеників та Федорівки Другої .",
        "sector_id": "pokrovsk",
        "source": "DeepState",
        "source_type": "geospatial_osint",
        "source_url": "https://deepstatemap.live",
        "event_date": "2026-09-07",
        "published_at": "2026-09-07T19:27:15.000Z",
        "confidence": 0.94,
        "status": "osint_verified"
      }
    },
    {
      "type": "Feature",
      "id": "ds-feat-1788899564",
      "geometry": {
        "type": "Point",
        "coordinates": [
          37.6178395,
          48.4536051
        ]
      },
      "properties": {
        "id": "ds-feat-1788899564",
        "name": "Степанивки и Котлиного",
        "title_ru": "Степанивки и Котлиного",
        "title_uk": "Степанівки та Котлиного",
        "description": "противник продвинулся вблизи Степанивки и Котлиного.",
        "description_ru": "противник продвинулся вблизи Степанивки и Котлиного.",
        "description_uk": "Ворог просунувся поблизу Степанівки та Котлиного .",
        "sector_id": "toretsk",
        "source": "DeepState",
        "source_type": "geospatial_osint",
        "source_url": "https://deepstatemap.live",
        "event_date": "2026-09-08",
        "published_at": "2026-09-08T20:32:44.000Z",
        "confidence": 0.94,
        "status": "osint_verified"
      }
    },
    {
      "type": "Feature",
      "id": "ds-feat-1788970089",
      "geometry": {
        "type": "Point",
        "coordinates": [
          37.633674,
          48.5162071
        ]
      },
      "properties": {
        "id": "ds-feat-1788970089",
        "name": "Константиновка и Червоного",
        "title_ru": "Константиновка и Червоного",
        "title_uk": "Костянтинівки та Червоного",
        "description": "противник продвинулся вблизи Константиновка и Червоного.",
        "description_ru": "противник продвинулся вблизи Константиновка и Червоного.",
        "description_uk": "Ворог просунувся поблизу Костянтинівки та Червоного .",
        "sector_id": "chasiv_yar",
        "source": "DeepState",
        "source_type": "geospatial_osint",
        "source_url": "https://deepstatemap.live",
        "event_date": "2026-09-09",
        "published_at": "2026-09-09T16:08:09.000Z",
        "confidence": 0.94,
        "status": "osint_verified"
      }
    },
    {
      "type": "Feature",
      "id": "ds-feat-1789071282",
      "geometry": {
        "type": "Point",
        "coordinates": [
          37.7944282,
          48.6703221
        ]
      },
      "properties": {
        "id": "ds-feat-1789071282",
        "name": "Новомаркового",
        "title_ru": "Новомаркового",
        "title_uk": "Новомаркового",
        "description": "противник продвинулся вблизи Новомаркового.",
        "description_ru": "противник продвинулся вблизи Новомаркового.",
        "description_uk": "Ворог просунувся поблизу Новомаркового .",
        "sector_id": "chasiv_yar",
        "source": "DeepState",
        "source_type": "geospatial_osint",
        "source_url": "https://deepstatemap.live",
        "event_date": "2026-09-10",
        "published_at": "2026-09-10T20:14:42.000Z",
        "confidence": 0.94,
        "status": "osint_verified"
      }
    },
    {
      "type": "Feature",
      "id": "ds-feat-1789152946",
      "geometry": {
        "type": "Point",
        "coordinates": [
          37.8283307,
          48.7681267
        ]
      },
      "properties": {
        "id": "ds-feat-1789152946",
        "name": "Диброви",
        "title_ru": "Диброви",
        "title_uk": "Діброви",
        "description": "противник продвинулся вблизи Диброви.",
        "description_ru": "противник продвинулся вблизи Диброви.",
        "description_uk": "Ворог просунувся поблизу Діброви .",
        "sector_id": "chasiv_yar",
        "source": "DeepState",
        "source_type": "geospatial_osint",
        "source_url": "https://deepstatemap.live",
        "event_date": "2026-09-11",
        "published_at": "2026-09-11T18:55:46.000Z",
        "confidence": 0.94,
        "status": "osint_verified"
      }
    },
    {
      "type": "Feature",
      "id": "ds-feat-1789239868",
      "geometry": {
        "type": "Point",
        "coordinates": [
          37.8136543,
          48.5719801
        ]
      },
      "properties": {
        "id": "ds-feat-1789239868",
        "name": "Миколаивки и Долгая Балка",
        "title_ru": "Миколаивки и Долгая Балка",
        "title_uk": "Миколаївки та Довгої Балки",
        "description": "противник продвинулся вблизи Миколаивки и Долгая Балка.",
        "description_ru": "противник продвинулся вблизи Миколаивки и Долгая Балка.",
        "description_uk": "Ворог просунувся поблизу Миколаївки та Довгої Балки .",
        "sector_id": "chasiv_yar",
        "source": "DeepState",
        "source_type": "geospatial_osint",
        "source_url": "https://deepstatemap.live",
        "event_date": "2026-09-12",
        "published_at": "2026-09-12T19:04:28.000Z",
        "confidence": 0.94,
        "status": "osint_verified"
      }
    },
    {
      "type": "Feature",
      "id": "ds-feat-1789308370",
      "geometry": {
        "type": "Point",
        "coordinates": [
          37.9099567,
          48.8181682
        ]
      },
      "properties": {
        "id": "ds-feat-1789308370",
        "name": "Каленики и Белицкое",
        "title_ru": "Каленики и Белицкое",
        "title_uk": "Калеників та Білицького",
        "description": "противник продвинулся вблизи Каленики и Белицкое.",
        "description_ru": "противник продвинулся вблизи Каленики и Белицкое.",
        "description_uk": "Ворог просунувся поблизу Калеників та Білицького .",
        "sector_id": "chasiv_yar",
        "source": "DeepState",
        "source_type": "geospatial_osint",
        "source_url": "https://deepstatemap.live",
        "event_date": "2026-09-13",
        "published_at": "2026-09-13T14:06:10.000Z",
        "confidence": 0.94,
        "status": "osint_verified"
      }
    },
    {
      "type": "Feature",
      "id": "ds-feat-1789404796",
      "geometry": {
        "type": "Point",
        "coordinates": [
          37.2600497,
          48.4596129
        ]
      },
      "properties": {
        "id": "ds-feat-1789404796",
        "name": "Нового Шахового",
        "title_ru": "Нового Шахового",
        "title_uk": "Нового Шахового",
        "description": "противник продвинулся вблизи Нового Шахового.",
        "description_ru": "противник продвинулся вблизи Нового Шахового.",
        "description_uk": "Ворог просунувся поблизу Нового Шахового .",
        "sector_id": "pokrovsk",
        "source": "DeepState",
        "source_type": "geospatial_osint",
        "source_url": "https://deepstatemap.live",
        "event_date": "2026-09-14",
        "published_at": "2026-09-14T16:53:16.000Z",
        "confidence": 0.94,
        "status": "osint_verified"
      }
    },
    {
      "type": "Feature",
      "id": "ds-feat-1789423242",
      "geometry": {
        "type": "Point",
        "coordinates": [
          37.6949529,
          49.1023083
        ]
      },
      "properties": {
        "id": "ds-feat-1789423242",
        "name": "Середне и Шандриголового",
        "title_ru": "Середне и Шандриголового",
        "title_uk": "Середнє та Шандриголового",
        "description": "Силы обороны Украины звильнили Середне и видкинули противника вблизи Шандриголового.",
        "description_ru": "Силы обороны Украины звильнили Середне и видкинули противника вблизи Шандриголового.",
        "description_uk": "Сили Оборони України звільнили Середнє та відкинули ворога поблизу Шандриголового .",
        "sector_id": "chasiv_yar",
        "source": "DeepState",
        "source_type": "geospatial_osint",
        "source_url": "https://deepstatemap.live",
        "event_date": "2026-09-14",
        "published_at": "2026-09-14T22:00:42.000Z",
        "confidence": 0.94,
        "status": "osint_verified"
      }
    },
    {
      "type": "Feature",
      "id": "ds-feat-1789582770",
      "geometry": {
        "type": "Point",
        "coordinates": [
          37.1986852,
          48.4023191
        ]
      },
      "properties": {
        "id": "ds-feat-1789582770",
        "name": "Белицкое",
        "title_ru": "Белицкое",
        "title_uk": "Білицького",
        "description": "противник продвинулся вблизи Белицкое.",
        "description_ru": "противник продвинулся вблизи Белицкое.",
        "description_uk": "Ворог просунувся поблизу Білицького .",
        "sector_id": "pokrovsk",
        "source": "DeepState",
        "source_type": "geospatial_osint",
        "source_url": "https://deepstatemap.live",
        "event_date": "2026-09-16",
        "published_at": "2026-09-16T18:19:30.000Z",
        "confidence": 0.94,
        "status": "osint_verified"
      }
    },
    {
      "type": "Feature",
      "id": "ds-feat-1789662080",
      "geometry": {
        "type": "Point",
        "coordinates": [
          37.1297571,
          50.3344312
        ]
      },
      "properties": {
        "id": "ds-feat-1789662080",
        "name": "Бочково",
        "title_ru": "Бочково",
        "title_uk": "Бочкового",
        "description": "противник продвинулся вблизи Бочково.",
        "description_ru": "противник продвинулся вблизи Бочково.",
        "description_uk": "Ворог просунувся поблизу Бочкового .",
        "sector_id": "kupyansk_lyman",
        "source": "DeepState",
        "source_type": "geospatial_osint",
        "source_url": "https://deepstatemap.live",
        "event_date": "2026-09-17",
        "published_at": "2026-09-17T16:21:20.000Z",
        "confidence": 0.94,
        "status": "osint_verified"
      }
    },
    {
      "type": "Feature",
      "id": "ds-feat-1789759538",
      "geometry": {
        "type": "Point",
        "coordinates": [
          37.0436683,
          48.2650274
        ]
      },
      "properties": {
        "id": "ds-feat-1789759538",
        "name": "Котлиного",
        "title_ru": "Котлиного",
        "title_uk": "Котлиного",
        "description": "противник продвинулся вблизи Котлиного.",
        "description_ru": "противник продвинулся вблизи Котлиного.",
        "description_uk": "Ворог просунувся поблизу Котлиного .",
        "sector_id": "pokrovsk",
        "source": "DeepState",
        "source_type": "geospatial_osint",
        "source_url": "https://deepstatemap.live",
        "event_date": "2026-09-18",
        "published_at": "2026-09-18T19:25:38.000Z",
        "confidence": 0.94,
        "status": "osint_verified"
      }
    },
    {
      "type": "Feature",
      "id": "ds-feat-1789884551",
      "geometry": {
        "type": "Point",
        "coordinates": [
          37.7682498,
          49.0928682
        ]
      },
      "properties": {
        "id": "ds-feat-1789884551",
        "name": "Шандриголове, Дерилове и Шандриголового",
        "title_ru": "Шандриголове, Дерилове и Шандриголового",
        "title_uk": "Шандриголове, Дерилове та Шандриголового",
        "description": "Силы обороны Украины звильнили Шандриголове и Дерилове, а также продвинулись вблизи Шандриголового.",
        "description_ru": "Силы обороны Украины звильнили Шандриголове и Дерилове, а также продвинулись вблизи Шандриголового.",
        "description_uk": "Сили Оборони України звільнили Шандриголове та Дерилове , а також просунулися поблизу Шандриголового .",
        "sector_id": "chasiv_yar",
        "source": "DeepState",
        "source_type": "geospatial_osint",
        "source_url": "https://deepstatemap.live",
        "event_date": "2026-09-20",
        "published_at": "2026-09-20T06:09:11.000Z",
        "confidence": 0.94,
        "status": "osint_verified"
      }
    },
    {
      "type": "Feature",
      "id": "ds-feat-1790017572",
      "geometry": {
        "type": "Point",
        "coordinates": [
          37.6310059,
          49.8104063
        ]
      },
      "properties": {
        "id": "ds-feat-1790017572",
        "name": "Западного",
        "title_ru": "Западного",
        "title_uk": "Западного",
        "description": "Силы обороны Украины вернули контроль вблизи Западного.",
        "description_ru": "Силы обороны Украины вернули контроль вблизи Западного.",
        "description_uk": "Сили Оборони України повернули контроль поблизу Западного .",
        "sector_id": "kupyansk_lyman",
        "source": "DeepState",
        "source_type": "geospatial_osint",
        "source_url": "https://deepstatemap.live",
        "event_date": "2026-09-21",
        "published_at": "2026-09-21T19:06:12.000Z",
        "confidence": 0.94,
        "status": "osint_verified"
      }
    },
    {
      "type": "Feature",
      "id": "ds-feat-1790093910",
      "geometry": {
        "type": "Point",
        "coordinates": [
          37.7600169,
          48.6598407
        ]
      },
      "properties": {
        "id": "ds-feat-1790093910",
        "name": "Марково и Федоривки",
        "title_ru": "Марково и Федоривки",
        "title_uk": "Маркове та Федорівки",
        "description": "противник занял Марково и продвинулся вблизи Федоривки.",
        "description_ru": "противник занял Марково и продвинулся вблизи Федоривки.",
        "description_uk": "Ворог окупував Маркове та просунувся поблизу Федорівки .",
        "sector_id": "chasiv_yar",
        "source": "DeepState",
        "source_type": "geospatial_osint",
        "source_url": "https://deepstatemap.live",
        "event_date": "2026-09-22",
        "published_at": "2026-09-22T16:18:30.000Z",
        "confidence": 0.94,
        "status": "osint_verified"
      }
    },
    {
      "type": "Feature",
      "id": "ds-feat-1790149115",
      "geometry": {
        "type": "Point",
        "coordinates": [
          37.3679363,
          48.5258176
        ]
      },
      "properties": {
        "id": "ds-feat-1790149115",
        "name": "Торецк",
        "title_ru": "Торецк",
        "title_uk": "Торецького",
        "description": "Силы обороны Украины здийснили зачистку вблизи Торецк.",
        "description_ru": "Силы обороны Украины здийснили зачистку вблизи Торецк.",
        "description_uk": "Сили Оборони України здійснили зачистку поблизу Торецького .",
        "sector_id": "pokrovsk",
        "source": "DeepState",
        "source_type": "geospatial_osint",
        "source_url": "https://deepstatemap.live",
        "event_date": "2026-09-23",
        "published_at": "2026-09-23T07:38:35.000Z",
        "confidence": 0.94,
        "status": "osint_verified"
      }
    },
    {
      "type": "Feature",
      "id": "ds-feat-1790259887",
      "geometry": {
        "type": "Point",
        "coordinates": [
          37.8235672,
          48.7751193
        ]
      },
      "properties": {
        "id": "ds-feat-1790259887",
        "name": "Новоалександровка, Юркивки и Василивки",
        "title_ru": "Новоалександровка, Юркивки и Василивки",
        "title_uk": "Новоолександрівку, Юрківки та Василівки",
        "description": "противник занял Новоалександровка, а также продвинулся вблизи Юркивки и Василивки.",
        "description_ru": "противник занял Новоалександровка, а также продвинулся вблизи Юркивки и Василивки.",
        "description_uk": "Ворог окупував Новоолександрівку , а також просунувся поблизу Юрківки та Василівки .",
        "sector_id": "chasiv_yar",
        "source": "DeepState",
        "source_type": "geospatial_osint",
        "source_url": "https://deepstatemap.live",
        "event_date": "2026-09-24",
        "published_at": "2026-09-24T14:24:47.000Z",
        "confidence": 0.94,
        "status": "osint_verified"
      }
    }
  ]
}