{
  "type": "FeatureCollection",
  "metadata": {
    "from": "2026-08-26",
    "to": "2026-08-27",
    "area_change_km2": 4.85
  },
  "features": [
    {
      "type": "Feature",
      "id": "change-pokrovsk-hrodivka",
      "properties": {
        "id": "change-pokrovsk-hrodivka",
        "name": "Продвижение в районе Гродовки",
        "name_uk": "Просування в районі Гродівки",
        "name_en": "Advance near Hrodivka",
        "summary": "Штурмовые группы продвинулись вдоль лесополос и частного сектора на востоке поселка.",
        "summary_uk": "Штурмові групи просунулися вздовж лісосмуг та приватного сектору на сході селища.",
        "summary_en": "Assault elements advanced along treelines and residential sector east of settlement.",
        "date": "2026-08-27",
        "area_km2": 2.65,
        "confidence": 0.95,
        "from_status": "contested",
        "to_status": "control_ru",
        "source_ids": ["deepstate-map", "isw"],
        "evidence_ids": ["ev-drone-pokrovsk-01", "ev-sat-pokrovsk-01"],
        "sector_id": "pokrovsk"
      },
      "geometry": {
        "type": "Polygon",
        "coordinates": [
          [
            [37.3750, 48.2580],
            [37.3910, 48.2590],
            [37.3960, 48.2670],
            [37.3820, 48.2690],
            [37.3730, 48.2630],
            [37.3750, 48.2580]
          ]
        ]
      }
    },
    {
      "type": "Feature",
      "id": "change-toretsk-pivnichne",
      "properties": {
        "id": "change-toretsk-pivnichne",
        "name": "Уточнение линии контроля в Северном (Пивничном)",
        "name_uk": "Уточнення лінії контролю в Північному",
        "name_en": "Control line clarification in Pivnichne",
        "summary": "Фиксация расширения зоны контроля в районе терриконов шахты 'Северная'.",
        "summary_uk": "Фіксація розширення зони контролю в районі териконів шахти 'Північна'.",
        "summary_en": "Zone of control expanded around the Pivnichna mine spoil heaps.",
        "date": "2026-08-26",
        "area_km2": 1.40,
        "confidence": 0.92,
        "from_status": "contested",
        "to_status": "control_ru",
        "source_ids": ["deepstate-map"],
        "evidence_ids": ["ev-drone-toretsk-01"],
        "sector_id": "toretsk"
      },
      "geometry": {
        "type": "Polygon",
        "coordinates": [
          [
            [37.8980, 48.3840],
            [37.9150, 48.3860],
            [37.9190, 48.3960],
            [37.9040, 48.3970],
            [37.8950, 48.3900],
            [37.8980, 48.3840]
          ]
        ]
      }
    },
    {
      "type": "Feature",
      "id": "change-kurakhove-vodyane",
      "properties": {
        "id": "change-kurakhove-vodyane",
        "name": "Локальное продвижение в районе Водяного",
        "name_uk": "Локальне просування в районі Водяного",
        "name_en": "Local advance near Vodyane",
        "summary": "Продвижение вдоль балки и перекрестка дорог к северо-востоку от Угледара.",
        "summary_uk": "Просування вздовж балки та перехрестя доріг на північний схід від Вугледара.",
        "summary_en": "Advance along the gully and road junction northeast of Vuhledar.",
        "date": "2026-08-25",
        "area_km2": 0.80,
        "confidence": 0.91,
        "from_status": "contested",
        "to_status": "control_ru",
        "source_ids": ["deepstate-map", "isw"],
        "evidence_ids": ["ev-sat-vuhledar-01"],
        "sector_id": "kurakhove_vuhledar"
      },
      "geometry": {
        "type": "Polygon",
        "coordinates": [
          [
            [37.2950, 47.8050],
            [37.3180, 47.8080],
            [37.3220, 47.8180],
            [37.3020, 47.8170],
            [37.2920, 47.8110],
            [37.2950, 47.8050]
          ]
        ]
      }
    }
  ]
}
