{
  "type": "FeatureCollection",
  "features": [
    {
      "type": "Feature",
      "id": "deepstate-e10d66610db61be0",
      "geometry": {
        "type": "Point",
        "coordinates": [
          37.6359016,
          49.8436906
        ]
      },
      "properties": {
        "id": "deepstate-e10d66610db61be0",
        "title": "Геолокированное обновление: Западного",
        "title_uk": "Геолоковане оновлення: Западного",
        "title_en": "Geolocated map update: Западного",
        "summary": "По оценке DeepStateMAP, российские силы продвинулись в районе Западного.",
        "summary_uk": "Сили Оборони України відновили контроль поблизу Западного",
        "summary_en": "DeepStateMAP assesses that Russian forces advanced near Западного.",
        "event_date": "2026-08-25",
        "published_at": "2026-08-25T13:04:47+00:00",
        "verification_status": "probable",
        "source_ids": [
          "deepstate-map"
        ],
        "evidence_ids": [
          "ev-deepstate-e10d66610db61be0"
        ],
        "location_label": "Западного"
      }
    },
    {
      "type": "Feature",
      "id": "deepstate-b87cde802295b267",
      "geometry": {
        "type": "Point",
        "coordinates": [
          37.2304382,
          48.4351558
        ]
      },
      "properties": {
        "id": "deepstate-b87cde802295b267",
        "title": "Геолокированное обновление: Дорожнього",
        "title_uk": "Геолоковане оновлення: Дорожнього",
        "title_en": "Geolocated map update: Дорожнього",
        "summary": "По оценке DeepStateMAP, российские силы продвинулись в районе Дорожнього.",
        "summary_uk": "Ворог просунувся поблизу Дорожнього та Софіївки",
        "summary_en": "DeepStateMAP assesses that Russian forces advanced near Дорожнього.",
        "event_date": "2026-08-25",
        "published_at": "2026-08-25T11:55:26+00:00",
        "verification_status": "probable",
        "source_ids": [
          "deepstate-map"
        ],
        "evidence_ids": [
          "ev-deepstate-b87cde802295b267"
        ],
        "location_label": "Дорожнього"
      }
    },
    {
      "type": "Feature",
      "id": "deepstate-5a3d406396abaa25",
      "geometry": {
        "type": "Point",
        "coordinates": [
          37.408114,
          48.4890865
        ]
      },
      "properties": {
        "id": "deepstate-5a3d406396abaa25",
        "title": "Геолокированное обновление: Софіївки",
        "title_uk": "Геолоковане оновлення: Софіївки",
        "title_en": "Geolocated map update: Софіївки",
        "summary": "По оценке DeepStateMAP, российские силы продвинулись в районе Софіївки.",
        "summary_uk": "Ворог просунувся поблизу Дорожнього та Софіївки",
        "summary_en": "DeepStateMAP assesses that Russian forces advanced near Софіївки.",
        "event_date": "2026-08-25",
        "published_at": "2026-08-25T11:55:26+00:00",
        "verification_status": "probable",
        "source_ids": [
          "deepstate-map"
        ],
        "evidence_ids": [
          "ev-deepstate-5a3d406396abaa25"
        ],
        "location_label": "Софіївки"
      }
    },
    {
      "type": "Feature",
      "id": "deepstate-0de04a7e22f6a7f5",
      "geometry": {
        "type": "Point",
        "coordinates": [
          37.6237966,
          48.4916965
        ]
      },
      "properties": {
        "id": "deepstate-0de04a7e22f6a7f5",
        "title": "Геолокированное обновление: Довгої Балки",
        "title_uk": "Геолоковане оновлення: Довгої Балки",
        "title_en": "Geolocated map update: Довгої Балки",
        "summary": "По оценке DeepStateMAP, российские силы продвинулись в районе Довгої Балки.",
        "summary_uk": "Ворог просунувся поблизу Довгої Балки",
        "summary_en": "DeepStateMAP assesses that Russian forces advanced near Довгої Балки.",
        "event_date": "2026-08-23",
        "published_at": "2026-08-23T18:49:19+00:00",
        "verification_status": "probable",
        "source_ids": [
          "deepstate-map"
        ],
        "evidence_ids": [
          "ev-deepstate-0de04a7e22f6a7f5"
        ],
        "location_label": "Довгої Балки"
      }
    }
  ]
}
